NORAD_CAT_ID,OBJECT_NAME,OBJECT_TYPE,EPOCH,MEAN_MOTION,ECCENTRICITY,INCLINATION,RA_OF_ASC_NODE,ARG_OF_PERICENTER,MEAN_ANOMALY,BSTAR,MEAN_MOTION_DOT,MEAN_MOTION_DDOT,TLE_LINE0,TLE_LINE1,TLE_LINE2,SEMIMAJOR_AXIS,PERIOD,APOGEE,PERIGEE,DECAYED
49135.0,STARLINK-3073,PAYLOAD,2022-10-14 03:42:21,14.9834546,0.0003024,70.0022,147.3277,257.5304,102.5517,0.00069863,8.256e-05,0.0,0 STARLINK-3073,1 49135U 21082F   22287.15441913  .00008256  00000-0  69863-3 0  9990,2 49135  70.0022 147.3277 0003024 257.5304 102.5517 14.98345460 60855,6950.145,96.106,574.112,569.908,0.0
49135.0,STARLINK-3073,PAYLOAD,2022-10-14 08:30:45,14.983498,0.0003027,70.0022,146.8227,257.5725,102.5095,0.0007072999999999,8.361e-05,0.0,0 STARLINK-3073,1 49135U 21082F   22287.35469656  .00008361  00000-0  70730-3 0  9998,2 49135  70.0022 146.8227 0003027 257.5725 102.5095 14.98349800 60880,6950.132,96.106,574.1,569.893,0.0
49135.0,STARLINK-3073,PAYLOAD,2022-10-14 21:19:49,14.98357655,0.0002995,70.0025,145.4758,257.1326,102.9499,0.00062847,7.419e-05,0.0,0 STARLINK-3073,1 49135U 21082F   22287.88876724  .00007419  00000-0  62847-3 0  9997,2 49135  70.0025 145.4758 0002995 257.1326 102.9499 14.98357655 60961,6950.107,96.105,574.054,569.891,0.0
49135.0,STARLINK-3073,PAYLOAD,2022-10-15 00:32:05,14.98349264,0.0003051,70.002,145.1396,257.1262,102.9556,0.00020128,2.311e-05,0.0,0 STARLINK-3073,1 49135U 21082F   22288.02228666  .00002311  00000-0  20128-3 0  9992,2 49135  70.0020 145.1396 0003051 257.1262 102.9556 14.98349264 60987,6950.1330000000025,96.106,574.119,569.878,0.0
49135.0,STARLINK-3073,PAYLOAD,2022-10-15 18:09:33,14.9835195,0.0003092,70.0024,143.2879,257.8551,102.2262,0.00021743,2.504e-05,0.0,0 STARLINK-3073,1 49135U 21082F   22288.75663866  .00002504  00000-0  21743-3 0  9995,2 49135  70.0024 143.2879 0003092 257.8551 102.2262 14.98351950 61094,6950.125,96.106,574.139,569.841,0.0
49135.0,STARLINK-3073,PAYLOAD,2022-10-16 02:10:13,14.98344476,0.0003154999999999,70.0018,142.4466,258.7883,101.2921,3.0811e-06,-5.6e-07,0.0,0 STARLINK-3073,1 49135U 21082F   22289.09043856 -.00000056  00000-0  30811-5 0  9993,2 49135  70.0018 142.4466 0003155 258.7883 101.2921 14.98344476 61140,6950.148,96.106,574.206,569.82,0.0
49135.0,STARLINK-3073,PAYLOAD,2022-10-16 19:47:42,14.98333058,0.0002979,70.0015,140.5948,254.3502,105.7329,-0.00022937,-2.829e-05,0.0,0 STARLINK-3073,1 49135U 21082F   22289.82480112 -.00002829  00000-0 -22937-3 0  9993,2 49135  70.0015 140.5948 0002979 254.3502 105.7329 14.98333058 61251,6950.183000000001,96.107,574.119,569.9780000000002,0.0
49135.0,STARLINK-3073,PAYLOAD,2022-10-17 03:48:23,14.98329939,0.0003031,70.0007,139.7537,257.9977,102.0843,-0.00021952,-2.711e-05,0.0,0 STARLINK-3073,1 49135U 21082F   22290.15861072 -.00002711  00000-0 -21952-3 0  9995,2 49135  70.0007 139.7537 0003031 257.9977 102.0843 14.98329939 61301,6950.193,96.107,574.165,569.951,0.0
49135.0,STARLINK-3073,PAYLOAD,2022-10-17 19:49:44,14.98332867,0.0002865,70.0007,138.0707,256.4685,103.6155,-0.00017607,-2.193e-05,0.0,0 STARLINK-3073,1 49135U 21082F   22290.82621011 -.00002193  00000-0 -17607-3 0  9992,2 49135  70.0007 138.0707 0002865 256.4685 103.6155 14.98332867 61404,6950.184,96.107,574.04,570.058,0.0
49135.0,STARLINK-3073,PAYLOAD,2022-10-18 07:02:40,14.98333479,0.000312,70.0006,136.8925,257.8678,102.2132,-0.00014077,-1.772e-05,0.0,0 STARLINK-3073,1 49135U 21082F   22291.29352874 -.00001772  00000-0 -14077-3 0  9992,2 49135  70.0006 136.8925 0003120 257.8678 102.2132 14.98333479 61470,6950.182,96.107,574.216,569.879,0.0
49135.0,STARLINK-3073,PAYLOAD,2022-10-18 13:27:13,14.98324054,0.0003049,70.0006,136.2192,257.3137,102.7682,3.0385e-05,2.7000000000000004e-06,0.0,0 STARLINK-3073,1 49135U 21082F   22291.56057282  .00000270  00000-0  30385-4 0  9998,2 49135  70.0006 136.2192 0003049 257.3137 102.7682 14.98324054 61514,6950.2109999999975,96.107,574.195,569.957,0.0
49135.0,STARLINK-3073,PAYLOAD,2022-10-19 13:29:14,14.98326909,0.0002963,70.0007,133.6942,257.3034,102.7793,0.00014021,1.58e-05,0.0,0 STARLINK-3073,1 49135U 21082F   22292.56197304  .00001580  00000-0  14021-3 0  9992,2 49135  70.0007 133.6942 0002963 257.3034 102.7793 14.98326909 61669,6950.2019999999975,96.107,574.127,570.008,0.0
49135.0,STARLINK-3073,PAYLOAD,2022-10-19 21:29:54,14.98330258,0.0002901999999999,70.0007,132.8529,256.2246,103.859,0.00012832,1.438e-05,0.0,0 STARLINK-3073,1 49135U 21082F   22292.89577163  .00001438  00000-0  12832-3 0  9993,2 49135  70.0007 132.8529 0002902 256.2246 103.8590 14.98330258 61712,6950.191999999999,96.107,574.0740000000002,570.04,0.0
49135.0,STARLINK-3073,PAYLOAD,2022-10-20 13:31:14,14.9833522,0.0002897,70.0003,131.1694,256.9637,103.1198,0.00011655,1.298e-05,0.0,0 STARLINK-3073,1 49135U 21082F   22293.56336799  .00001298  00000-0  11655-3 0  9992,2 49135  70.0003 131.1694 0002897 256.9637 103.1198 14.98335220 61819,6950.177,96.107,574.055,570.028,0.0
49135.0,STARLINK-3073,PAYLOAD,2022-10-21 07:08:43,14.98340555,0.0002849,70.0005,129.3177,256.6651,103.419,0.00011652,1.298e-05,0.0,0 STARLINK-3073,1 49135U 21082F   22294.29772136  .00001298  00000-0  11652-3 0  9999,2 49135  70.0005 129.3177 0002849 256.6651 103.4190 14.98340555 61920,6950.16,96.106,574.005,570.045,0.0
49135.0,STARLINK-3073,PAYLOAD,2022-10-21 19:57:47,14.98338869,0.0002876,70.0003,127.9709,255.8976,104.1863,5.3659e-05,5.47e-06,0.0,0 STARLINK-3073,1 49135U 21082F   22294.83179990  .00000547  00000-0  53659-4 0  9998,2 49135  70.0003 127.9709 0002876 255.8976 104.1863 14.98338869 62004,6950.165,96.106,574.029,570.0319999999998,0.0
49135.0,STARLINK-3073,PAYLOAD,2022-10-22 00:46:12,14.98330778,0.000291,70.0002,127.4664,257.7187,102.3646,-4.3394e-05,-6.11e-06,0.0,0 STARLINK-3073,1 49135U 21082F   22295.03208667 -.00000611  00000-0 -43394-4 0  9994,2 49135  70.0002 127.4664 0002910 257.7187 102.3646 14.98330778 62035,6950.19,96.107,574.078,570.033,0.0
49135.0,STARLINK-3073,PAYLOAD,2022-10-22 13:35:16,14.98330744,0.0002939,70.0002,126.1199,257.5303,102.5527,-4.0211e-05,-5.73e-06,0.0,0 STARLINK-3073,1 49135U 21082F   22295.56616603 -.00000573  00000-0 -40211-4 0  9997,2 49135  70.0002 126.1199 0002939 257.5303 102.5527 14.98330744 62115,6950.191,96.107,574.0980000000002,570.013,0.0
49135.0,STARLINK-3073,PAYLOAD,2022-10-22 19:59:48,14.98333534,0.0002955,70.0001,125.4465,257.9646,102.1182,-4.4086e-05,-6.19e-06,0.0,0 STARLINK-3073,1 49135U 21082F   22295.83320387 -.00000619  00000-0 -44086-4 0  9993,2 49135  70.0001 125.4465 0002955 257.9646 102.1182 14.98333534 62151,6950.182,96.107,574.101,569.993,0.0
49135.0,STARLINK-3073,PAYLOAD,2022-10-22 21:35:56,14.98333697,0.0002951,70.0001,125.2782,257.9951,102.0877,-4.1954e-05,-5.94e-06,0.0,0 STARLINK-3073,1 49135U 21082F   22295.89996351 -.00000594  00000-0 -41954-4 0  9992,2 49135  70.0001 125.2782 0002951 257.9951 102.0877 14.98333697 62167,6950.181,96.107,574.097,569.995,0.0
49135.0,STARLINK-3073,PAYLOAD,2022-10-23 18:25:41,14.98333775,0.0002952,70.0002,123.09,258.6305,101.4523,-6.5179999999999976e-06,-1.71e-06,0.0,0 STARLINK-3073,1 49135U 21082F   22296.76784047 -.00000171  00000-0 -65180-5 0  9995,2 49135  70.0002 123.0900 0002952 258.6305 101.4523 14.98333775 62290,6950.181,96.107,574.0980000000002,569.995,0.0
49135.0,STARLINK-3073,PAYLOAD,2022-10-23 21:37:57,14.98331825,0.0002892,70.0005,122.7538,257.9525,102.131,3.6322e-05,3.4e-06,0.0,0 STARLINK-3073,1 49135U 21082F   22296.90136059  .00000340  00000-0  36322-4 0  9996,2 49135  70.0005 122.7538 0002892 257.9525 102.1310 14.98331825 62314,6950.187,96.107,574.062,570.0419999999998,0.0
49135.0,STARLINK-3073,PAYLOAD,2022-10-24 16:51:34,14.98332564,0.0002865,70.0007,120.7345,256.6027,103.4813,8.9387e-05,9.74e-06,0.0,0 STARLINK-3073,1 49135U 21082F   22297.70247853  .00000974  00000-0  89387-4 0  9992,2 49135  70.0007 120.7345 0002865 256.6027 103.4813 14.98332564 62439,6950.185,96.107,574.0409999999998,570.059,0.0
49135.0,STARLINK-3073,PAYLOAD,2022-10-24 18:27:42,14.98332748,0.0002856,70.0008,120.5663,256.4019,103.6822,9.0614e-05,9.88e-06,0.0,0 STARLINK-3073,1 49135U 21082F   22297.76923833  .00000988  00000-0  90614-4 0  9997,2 49135  70.0008 120.5663 0002856 256.4019 103.6822 14.98332748 62447,6950.184,96.107,574.034,570.064,0.0
49135.0,STARLINK-3073,PAYLOAD,2022-10-25 05:40:38,14.9833394,0.0002839,70.0008,119.3872,256.9796,103.1047,7.5382e-05,8.07e-06,0.0,0 STARLINK-3073,1 49135U 21082F   22298.23655672  .00000807  00000-0  75382-4 0  9998,2 49135  70.0008 119.3872 0002839 256.9796 103.1047 14.98333940 62510,6950.181,96.107,574.019,570.073,0.0
49135.0,STARLINK-3073,PAYLOAD,2022-10-25 18:29:42,14.98336324,0.0002845,70.0009,118.0407,257.0798,103.0043,8.193299999999999e-05,8.85e-06,0.0,0 STARLINK-3073,1 49135U 21082F   22298.77063339  .00000885  00000-0  81933-4 0  9995,2 49135  70.0009 118.0407 0002845 257.0798 103.0043 14.98336324 62594,6950.1730000000025,96.107,574.016,570.061,0.0
49135.0,STARLINK-3073,PAYLOAD,2022-10-25 20:05:50,14.98336299,0.0002853,70.0008,117.8724,257.1327,102.9513,7.8961e-05,8.49e-06,0.0,0 STARLINK-3073,1 49135U 21082F   22298.83739317  .00000849  00000-0  78961-4 0  9995,2 49135  70.0008 117.8724 0002853 257.1327 102.9513 14.98336299 62603,6950.1730000000025,96.107,574.021,570.056,0.0
49135.0,STARLINK-3073,PAYLOAD,2022-10-26 12:07:10,14.98339352,0.000285,70.0008,116.1888,256.7812,103.3029,7.2161e-05,7.68e-06,0.0,0 STARLINK-3073,1 49135U 21082F   22299.50498832  .00000768  00000-0  72161-4 0  9990,2 49135  70.0008 116.1888 0002850 256.7812 103.3029 14.98339352 62708,6950.1640000000025,96.106,574.01,570.048,0.0
49135.0,STARLINK-3073,PAYLOAD,2022-10-26 18:31:43,14.98335361,0.0002694,70.0012,115.5155,250.2888,109.798,5.9811e-05,6.21e-06,0.0,0 STARLINK-3073,1 49135U 21082F   22299.77202976  .00000621  00000-0  59811-4 0  9996,2 49135  70.0012 115.5155 0002694 250.2888 109.7980 14.98335361 62747,6950.176,96.107,573.914,570.169,0.0
